{"type": "FeatureCollection", "features": [ {"type": "Feature", "properties": {"norad_id": 38779, "name": "GSAT-10 (GAGAN/PRN 128)", "group": "gnss", "lat": -0.008731117659104103, "lon": 139.36379176798545, "alt_km": 35776.500278739506, "timestamp": "2025-12-07T22:37:43.321402+00:00", "meta": {"OBJECT_NAME": "GSAT-10 (GAGAN/PRN 128)", "OBJECT_ID": "2012-051B", "EPOCH": "2025-12-07T03:45:26.729568", "MEAN_MOTION": 1.0027336, "ECCENTRICITY": 0.00022166, "INCLINATION": 0.0223, "RA_OF_ASC_NODE": 263.8442, "ARG_OF_PERICENTER": 225.2769, "MEAN_ANOMALY": 86.3959, "EPHEMERIS_TYPE": 0, "CLASSIFICATION_TYPE": "U", "NORAD_CAT_ID": 38779, "ELEMENT_SET_NO": 999, "REV_AT_EPOCH": 4817, "BSTAR": 0, "MEAN_MOTION_DOT": -1.6e-06, "MEAN_MOTION_DDOT": 0}, "tle": {"line1": "1 38779U 12051B   25341.15655937 -.00000160  00000+0  00000+0 0  9995", "line2": "2 38779   0.0223 263.8442 0002216 225.2769  86.3959  1.00273360 48178"}}, "geometry": {"type": "Point", "coordinates": [139.36379176798545, -0.008731117659104103]}}, {"type": "Feature", "properties": {"norad_id": 38833, "name": "GPS BIIF-3  (PRN 24)", "group": "gnss", "lat": 42.700602342500936, "lon": -165.56780188694032, "alt_km": 19713.422429557853, "timestamp": "2025-12-07T22:37:43.321414+00:00", "meta": {"OBJECT_NAME": "GPS BIIF-3  (PRN 24)", "OBJECT_ID": "2012-053A", "EPOCH": "2025-12-06T20:50:20.740704", "MEAN_MOTION": 2.0056489, "ECCENTRICITY": 0.01756175, "INCLINATION": 53.5566, "RA_OF_ASC_NODE": 151.4791, "ARG_OF_PERICENTER": 63.9122, "MEAN_ANOMALY": 297.8848, "EPHEMERIS_TYPE": 0, "CLASSIFICATION_TYPE": "U", "NORAD_CAT_ID": 38833, "ELEMENT_SET_NO": 999, "REV_AT_EPOCH": 9558, "BSTAR": 0, "MEAN_MOTION_DOT": 5.4e-07, "MEAN_MOTION_DDOT": 0}, "tle": {"line1": "1 38833U 12053A   25340.86829561  .00000054  00000+0  00000+0 0  9992", "line2": "2 38833  53.5566 151.4791 0175617  63.9122 297.8848  2.00564890 95582"}}, "geometry": {"type": "Point", "coordinates": [-165.56780188694032, 42.700602342500936]}}, {"type": "Feature", "properties": {"norad_id": 38857, "name": "GSAT0103 (GALILEO-FM3)", "group": "gnss", "lat": 6.158856574148036, "lon": -77.43561077819369, "alt_km": 23222.405690184038, "timestamp": "2025-12-07T22:37:43.321425+00:00", "meta": {"OBJECT_NAME": "GSAT0103 (GALILEO-FM3)", "OBJECT_ID": "2012-055A", "EPOCH": "2025-12-06T11:43:28.953984", "MEAN_MOTION": 1.7047325, "ECCENTRICITY": 0.00024686, "INCLINATION": 55.6879, "RA_OF_ASC_NODE": 106.8382, "ARG_OF_PERICENTER": 267.747, "MEAN_ANOMALY": 92.1776, "EPHEMERIS_TYPE": 0, "CLASSIFICATION_TYPE": "U", "NORAD_CAT_ID": 38857, "ELEMENT_SET_NO": 999, "REV_AT_EPOCH": 8172, "BSTAR": 0, "MEAN_MOTION_DOT": 7e-08, "MEAN_MOTION_DDOT": 0}, "tle": {"line1": "1 38857U 12055A   25340.48852956  .00000007  00000+0  00000+0 0  9990", "line2": "2 38857  55.6879 106.8382 0002468 267.7470  92.1776  1.70473250 81723"}}, "geometry": {"type": "Point", "coordinates": [-77.43561077819369, 6.158856574148036]}}, {"type": "Feature", "properties": {"norad_id": 38953, "name": "BEIDOU-2 G6 (C02)", "group": "gnss", "lat": 3.576494775568557, "lon": 140.43394894832713, "alt_km": 35808.81248489639, "timestamp": "2025-12-07T22:37:43.321439+00:00", "meta": {"OBJECT_NAME": "BEIDOU-2 G6 (C02)", "OBJECT_ID": "2012-059A", "EPOCH": "2025-12-07T03:45:41.706144", "MEAN_MOTION": 1.0027022, "ECCENTRICITY": 0.00075945, "INCLINATION": 3.9346, "RA_OF_ASC_NODE": 75.5577, "ARG_OF_PERICENTER": 289.3126, "MEAN_ANOMALY": 211.7788, "EPHEMERIS_TYPE": 0, "CLASSIFICATION_TYPE": "U", "NORAD_CAT_ID": 38953, "ELEMENT_SET_NO": 999, "REV_AT_EPOCH": 4798, "BSTAR": 0, "MEAN_MOTION_DOT": -1.72e-06, "MEAN_MOTION_DDOT": 0}, "tle": {"line1": "1 38953U 12059A   25341.15673271 -.00000172  00000+0  00000+0 0  9991", "line2": "2 38953   3.9346  75.5577 0007594 289.3126 211.7788  1.00270220 47983"}}, "geometry": {"type": "Point", "coordinates": [140.43394894832713, 3.576494775568557]}}, {"type": "Feature", "properties": {"norad_id": 38977, "name": "LUCH 5B (SDCM/PRN 125)", "group": "gnss", "lat": -2.015524518192593, "lon": 40.246552284986976, "alt_km": 35815.620102806046, "timestamp": "2025-12-07T22:37:43.321452+00:00", "meta": {"OBJECT_NAME": "LUCH 5B (SDCM/PRN 125)", "OBJECT_ID": "2012-061A", "EPOCH": "2025-12-05T23:12:38.603808", "MEAN_MOTION": 1.00272178, "ECCENTRICITY": 0.00074333, "INCLINATION": 10.0624, "RA_OF_ASC_NODE": 51.767, "ARG_OF_PERICENTER": 189.4366, "MEAN_ANOMALY": 165.6208, "EPHEMERIS_TYPE": 0, "CLASSIFICATION_TYPE": "U", "NORAD_CAT_ID": 38977, "ELEMENT_SET_NO": 999, "REV_AT_EPOCH": 4766, "BSTAR": 0, "MEAN_MOTION_DOT": -1.35e-06, "MEAN_MOTION_DDOT": 0}, "tle": {"line1": "1 38977U 12061A   25339.96711347 -.00000135  00000+0  00000+0 0  9992", "line2": "2 38977  10.0624  51.7670 0007433 189.4366 165.6208  1.00272178 47668"}}, "geometry": {"type": "Point", "coordinates": [40.246552284986976, -2.015524518192593]}}, {"type": "Feature", "properties": {"norad_id": 39155, "name": "COSMOS 2485 (747)", "group": "gnss", "lat": 14.696659945232746, "lon": 86.9532097316918, "alt_km": 19181.101949037056, "timestamp": "2025-12-07T22:37:43.321464+00:00", "meta": {"OBJECT_NAME": "COSMOS 2485 (747)", "OBJECT_ID": "2013-019A", "EPOCH": "2025-12-05T02:32:45.729312", "MEAN_MOTION": 2.13102875, "ECCENTRICITY": 0.00246247, "INCLINATION": 65.3094, "RA_OF_ASC_NODE": 80.124, "ARG_OF_PERICENTER": 229.2984, "MEAN_ANOMALY": 130.4888, "EPHEMERIS_TYPE": 0, "CLASSIFICATION_TYPE": "U", "NORAD_CAT_ID": 39155, "ELEMENT_SET_NO": 999, "REV_AT_EPOCH": 9814, "BSTAR": 0, "MEAN_MOTION_DOT": -2.1e-07, "MEAN_MOTION_DDOT": 0}, "tle": {"line1": "1 39155U 13019A   25339.10608483 -.00000021  00000+0  00000+0 0  9991", "line2": "2 39155  65.3094  80.1240 0024624 229.2984 130.4888  2.13102875 98144"}}, "geometry": {"type": "Point", "coordinates": [86.9532097316918, 14.696659945232746]}}, {"type": "Feature", "properties": {"norad_id": 39166, "name": "GPS BIIF-4  (PRN 27)", "group": "gnss", "lat": 18.711251433572492, "lon": 82.8599204761428, "alt_km": 20289.77196819666, "timestamp": "2025-12-07T22:37:43.321475+00:00", "meta": {"OBJECT_NAME": "GPS BIIF-4  (PRN 27)", "OBJECT_ID": "2013-023A", "EPOCH": "2025-12-07T05:32:23.727552", "MEAN_MOTION": 2.00565061, "ECCENTRICITY": 0.01375526, "INCLINATION": 54.6569, "RA_OF_ASC_NODE": 276.7922, "ARG_OF_PERICENTER": 48.5552, "MEAN_ANOMALY": 312.629, "EPHEMERIS_TYPE": 0, "CLASSIFICATION_TYPE": "U", "NORAD_CAT_ID": 39166, "ELEMENT_SET_NO": 999, "REV_AT_EPOCH": 9203, "BSTAR": 0, "MEAN_MOTION_DOT": -3.4e-07, "MEAN_MOTION_DDOT": 0}, "tle": {"line1": "1 39166U 13023A   25341.23083018 -.00000034  00000+0  00000+0 0  9990", "line2": "2 39166  54.6569 276.7922 0137552  48.5552 312.6290  2.00565061 92031"}}, "geometry": {"type": "Point", "coordinates": [82.8599204761428, 18.711251433572492]}}, {"type": "Feature", "properties": {"norad_id": 39199, "name": "IRNSS-1A", "group": "gnss", "lat": 24.090752397211986, "lon": 105.73817363972057, "alt_km": 35851.67653580527, "timestamp": "2025-12-07T22:37:43.321487+00:00", "meta": {"OBJECT_NAME": "IRNSS-1A", "OBJECT_ID": "2013-034A", "EPOCH": "2025-12-02T19:49:26.431104", "MEAN_MOTION": 1.00279053, "ECCENTRICITY": 0.00216608, "INCLINATION": 35.2852, "RA_OF_ASC_NODE": 66.6964, "ARG_OF_PERICENTER": 185.4059, "MEAN_ANOMALY": 172.3398, "EPHEMERIS_TYPE": 0, "CLASSIFICATION_TYPE": "U", "NORAD_CAT_ID": 39199, "ELEMENT_SET_NO": 999, "REV_AT_EPOCH": 4539, "BSTAR": 0, "MEAN_MOTION_DOT": 6.5e-07, "MEAN_MOTION_DDOT": 0}, "tle": {"line1": "1 39199U 13034A   25336.82600036  .00000065  00000+0  00000+0 0  9995", "line2": "2 39199  35.2852  66.6964 0021660 185.4059 172.3398  1.00279053 45393"}}, "geometry": {"type": "Point", "coordinates": [105.73817363972057, 24.090752397211986]}}, {"type": "Feature", "properties": {"norad_id": 39533, "name": "GPS BIIF-5  (PRN 30)", "group": "gnss", "lat": 18.467190504950626, "lon": -37.14017710336353, "alt_km": 20104.706612692094, "timestamp": "2025-12-07T22:37:43.321502+00:00", "meta": {"OBJECT_NAME": "GPS BIIF-5  (PRN 30)", "OBJECT_ID": "2014-008A", "EPOCH": "2025-12-06T17:26:15.806112", "MEAN_MOTION": 2.00574018, "ECCENTRICITY": 0.00790593, "INCLINATION": 53.6301, "RA_OF_ASC_NODE": 157.1699, "ARG_OF_PERICENTER": 226.4148, "MEAN_ANOMALY": 132.9387, "EPHEMERIS_TYPE": 0, "CLASSIFICATION_TYPE": "U", "NORAD_CAT_ID": 39533, "ELEMENT_SET_NO": 999, "REV_AT_EPOCH": 8582, "BSTAR": 0, "MEAN_MOTION_DOT": 5.9e-07, "MEAN_MOTION_DDOT": 0}, "tle": {"line1": "1 39533U 14008A   25340.72657183  .00000059  00000+0  00000+0 0  9991", "line2": "2 39533  53.6301 157.1699 0079059 226.4148 132.9387  2.00574018 85821"}}, "geometry": {"type": "Point", "coordinates": [-37.14017710336353, 18.467190504950626]}}, {"type": "Feature", "properties": {"norad_id": 39617, "name": "ASTRA 5B (EGNOS/PRN 123)", "group": "gnss", "lat": 0.06439719400158822, "lon": 79.8743784739433, "alt_km": 35806.08987000583, "timestamp": "2025-12-07T22:37:43.321519+00:00", "meta": {"OBJECT_NAME": "ASTRA 5B (EGNOS/PRN 123)", "OBJECT_ID": "2014-011B", "EPOCH": "2025-12-07T06:53:53.679840", "MEAN_MOTION": 1.00269224, "ECCENTRICITY": 0.00045744, "INCLINATION": 0.0526, "RA_OF_ASC_NODE": 24.3713, "ARG_OF_PERICENTER": 236.1294, "MEAN_ANOMALY": 302.7822, "EPHEMERIS_TYPE": 0, "CLASSIFICATION_TYPE": "U", "NORAD_CAT_ID": 39617, "ELEMENT_SET_NO": 999, "REV_AT_EPOCH": 4274, "BSTAR": 0, "MEAN_MOTION_DOT": 1.41e-06, "MEAN_MOTION_DDOT": 0}, "tle": {"line1": "1 39617U 14011B   25341.28742685  .00000141  00000+0  00000+0 0  9994", "line2": "2 39617   0.0526  24.3713 0004574 236.1294 302.7822  1.00269224 42745"}}, "geometry": {"type": "Point", "coordinates": [79.8743784739433, 0.06439719400158822]}}]}